#cP2012 11 18  0  0  0.00000000     288 u+U   IGb08 FIT  TUM
## 1715      0.00000000   300.00000000 56249 0.0000000000000
+    3   J01E11E12  0  0  0  0  0  0  0  0  0  0  0  0  0  0
+          0  0  0  0  0  0  0  0  0  0  0  0  0  0  0  0  0
+          0  0  0  0  0  0  0  0  0  0  0  0  0  0  0  0  0
+          0  0  0  0  0  0  0  0  0  0  0  0  0  0  0  0  0
+          0  0  0  0  0  0  0  0  0  0  0  0  0  0  0  0  0
++         2  1  1  0  0  0  0  0  0  0  0  0  0  0  0  0  0
++         0  0  0  0  0  0  0  0  0  0  0  0  0  0  0  0  0
++         0  0  0  0  0  0  0  0  0  0  0  0  0  0  0  0  0
++         0  0  0  0  0  0  0  0  0  0  0  0  0  0  0  0  0
++         0  0  0  0  0  0  0  0  0  0  0  0  0  0  0  0  0
%c E  cc GPS ccc cccc cccc cccc cccc ccccc ccccc ccccc ccccc
%c cc cc ccc ccc cccc cccc cccc cccc ccccc ccccc ccccc ccccc
%f  1.2500000  1.025000000  0.00000000000  0.000000000000000
%f  0.0000000  0.000000000  0.00000000000  0.000000000000000
%i    0    0    0    0      0      0      0      0         0
%i    0    0    0    0      0      0      0      0         0
/* Galileo+QZSS orbits for MGEX based on CONGO+MGEX data    
/* Technische Universitaet Muenchen (TUM)                   
/* Further information: www.iapg.bv.tum.de/mgex             
/* PCV:IGS08_1645 OL/AL:FES2004  NONE     YN ORB:CoN CLK:CoN
*  2012 11 18  3 20  0.00000000
PJ01 -24182.473303  27639.991027  25830.447065    351.420565
PE11 -29162.964455  -2701.352246   4285.266665    548.744008
PE12 -23446.794713 -13379.841795 -12135.780327    533.310951
*  2012 11 18  3 25  0.00000000
PJ01 -24079.588513  27520.590984  26107.910108    351.420632
PE11 -29279.011024  -2710.218095   3397.204142    548.859893
PE12 -23078.460326 -13299.912598 -12905.343593    533.336457
*  2012 11 18  3 30  0.00000000
PJ01 -23983.975003  27399.134804  26375.047244    351.420672
PE11 -29368.799407  -2712.127813   2504.441457    548.975792
PE12 -22685.843037 -13224.595962 -13657.051422    533.361974
*  2012 11 18  3 35  0.00000000
PJ01 -23895.726928  27275.954801  26631.774134    351.420664
PE11 -29431.969667  -2708.236623   1608.213747    549.091642
PE12 -22269.524831 -13155.010124 -14389.863964    533.387496
*  2012 11 18  3 40  0.00000000
PJ01 -23814.923507  27151.385822  26878.010071    351.420777
PE11 -29468.236965  -2699.719105    709.760907    549.207538
PE12 -21830.157375 -13092.241146 -15102.767552    533.413019
*  2012 11 18  3 45  0.00000000
PJ01 -23741.628962  27025.764626  27113.677967    351.420835
PE11 -29477.392555  -2687.764828   -189.674105    549.323492
PE12 -21368.459933 -13037.338938 -15794.776092    533.438564
*  2012 11 18  3 50  0.00000000
PJ01 -23675.892477  26899.429264  27338.704329    351.420825
PE11 -29459.304542  -2673.573925  -1088.847009    549.439386
PE12 -20885.217039 -12991.313392 -16464.932437    533.464038
*  2012 11 18  3 55  0.00000000
PJ01 -23617.748181  26772.718468  27553.019247    351.420894
PE11 -29413.918355  -2658.352636  -1986.513919    549.555291
PE12 -20381.275956 -12955.130673 -17112.309706    533.489615
*  2012 11 18  4  0  0.00000000
PJ01 -23567.215160  26645.971024  27756.556376    351.420955
PE11 -29341.256971  -2643.308828  -2881.433062    549.671137
PE12 -19857.543911 -12929.709651 -17736.012564    533.515142
*  2012 11 18  4  5  0.00000000
PJ01 -23524.297486  26519.525172  27949.252910    351.420965
PE11 -29241.420858  -2629.647502  -3772.366509    549.787100
PE12 -19314.985132 -12915.918523 -18335.178459    533.540679
*  2012 11 18  4 10  0.00000000
PJ01 -23488.984279  26393.717972  28131.049592    351.421027
PE11 -29114.587663  -2618.566330  -4658.081876    549.903025
PE12 -18754.617679 -12914.571584 -18908.978814    533.566205
*  2012 11 18  4 15  0.00000000
PJ01 -23461.249788  26268.884713  28301.890675    351.421147
PE11 -28961.011625  -2611.251200  -5537.354045    550.018939
PE12 -18177.510098 -12926.426225 -19456.620176    533.591712
*  2012 11 18  4 20  0.00000000
PJ01 -23441.053493  26145.358303  28461.723917    351.421181
PE11 -28781.022736  -2608.871813  -6408.966847    550.134841
PE12 -17584.777898 -12952.180107 -19977.345299    533.617225
*  2012 11 18  4 25  0.00000000
PJ01 -23428.340235  26023.468666  28610.500569    351.421180
PE11 -28575.025630  -2612.577332  -7271.714757    550.250763
PE12 -16977.579869 -12992.468554 -20470.434202    533.642776
*  2012 11 18  4 30  0.00000000
PJ01 -23423.040367  25903.542159  28748.175364    351.421301
PE11 -28343.498222  -2623.492108  -8124.404551    550.366690
PE12 -16357.114254 -13047.862170 -20935.205152    533.668316
*  2012 11 18  4 35  0.00000000
PJ01 -23425.069931  25785.900974  28874.706500    351.421340
PE11 -28086.990097  -2642.711488  -8965.856970    550.482569
PE12 -15724.614777 -13118.864685 -21371.015611    533.693856
*  2012 11 18  4 40  0.00000000
PJ01 -23434.330849  25670.862571  28990.055635    351.421345
PE11 -27806.120647  -2671.297737  -9794.908341    550.598503
PE12 -15081.346560 -13205.911032 -21777.263118    533.719414
*  2012 11 18  4 45  0.00000000
PJ01 -23450.711148  25558.739104  29094.187874    351.421460
PE11 -27501.576974  -2710.276059 -10610.412187    550.714457
PE12 -14428.601936 -13309.365671 -22153.386116    533.744957
*  2012 11 18  4 50  0.00000000
PJ01 -23474.085198  25449.836862  29187.071761    351.421506
PE11 -27174.111558  -2760.630767 -11411.240821    550.830338
PE12 -13767.696151 -13429.521168 -22498.864732    533.770499
*  2012 11 18  4 55  0.00000000
PJ01 -23504.313974  25344.455718  29268.679270    351.421512
PE11 -26824.539702  -2823.301582 -12196.286894    550.946225
PE12 -13099.963012 -13566.597015 -22813.221487    533.796031
*  2012 11 18  5  0  0.00000000
PJ01 -23541.245341  25242.888594  29338.985800    351.421595
PE11 -26453.736760  -2899.180098 -12964.464934    551.062078
PE12 -12426.750455 -13720.738724 -23096.021956    533.821567
*  2012 11 18  5  5  0.00000000
PJ01 -23584.714353  25145.420935  29397.970165    351.421705
PE11 -26062.635167  -2989.106413 -13714.712837    551.178020
PE12 -11749.416085 -13892.017168 -23346.875364    533.847115
*  2012 11 18  5 10  0.00000000
PJ01 -23634.543588  25052.330187  29445.614592    351.421713
PE11 -25652.221261  -3093.865947 -14445.993345    551.293866
PE12 -11069.322651 -14080.428198 -23565.435124    533.872621
*  2012 11 18  5 15  0.00000000
PJ01 -23690.543476  24963.885307  29481.904713    351.421765
PE11 -25223.531933  -3214.186437 -15157.295465    551.409813
PE12 -10387.833557 -14285.892514 -23751.399312    533.898150
*  2012 11 18  5 20  0.00000000
PJ01 -23752.512671  24880.346268  29506.829566    351.421906
PE11 -24777.651103  -3350.735150 -15847.635875    551.525715
PE12  -9706.308320 -14508.255814 -23904.511082    533.923660
*  2012 11 18  5 25  0.00000000
PJ01 -23820.238433  24801.963593  29520.381588    351.421926
PE11 -24315.706025  -3504.116307 -16516.060277    551.641583
PE12  -9026.098079 -14747.289195 -24024.559019    533.949194
*  2012 11 18  5 30  0.00000000
PJ01 -23893.497022  24728.977888  29522.556613    351.421957
PE11 -23838.863465  -3674.868718 -17161.644711    551.757411
PE12  -8348.541123 -15002.689829 -24111.377426    533.974724
*  2012 11 18  5 35  0.00000000
PJ01 -23972.054117  24661.619414  29513.353876    351.422061
PE11 -23348.325725  -3863.463660 -17783.496832    551.873267
PE12  -7674.958464 -15274.081895 -24164.846554    534.000254
*  2012 11 18  5 40  0.00000000
PJ01 -24055.665246  24600.107651  29492.776007    351.422114
PE11 -22845.326563  -4070.302979 -18380.757138    551.989147
PE12  -7006.649481 -15561.017767 -24184.892764    534.025790
*  2012 11 18  5 45  0.00000000
PJ01 -24144.076244  24544.650895  29460.829035    351.422125
PE11 -22331.126993  -4295.717450 -18952.600159    552.105044
PE12  -6344.887626 -15862.979462 -24171.488624    534.051338
*  2012 11 18  5 50  0.00000000
PJ01 -24237.023707  24495.445870  29417.522391    351.422236
PE11 -21807.011014  -4539.965373 -19498.235584    552.220916
PE12  -5690.916245 -16179.380333 -24124.652951    534.076890
*  2012 11 18  5 55  0.00000000
PJ01 -24334.235476  24452.677351  29362.868908    351.422275
PE11 -21274.281236  -4803.231436 -20016.909364    552.336827
PE12  -5045.944481 -16509.567007 -24044.450776    534.102461
*  2012 11 18  6  0  0.00000000
PJ01 -24435.431138  24416.517814  29296.884827    351.422275
PE11 -20734.254473  -5085.625823 -20507.904734    552.452744
PE12  -4411.143319 -16852.821556 -23930.993263    534.127981
*  2012 11 18  6  5  0.00000000
PJ01 -24540.322516  24387.127112  29219.589797    351.422340
PE11 -20188.257273  -5387.183602 -20970.543212    552.568605
PE12  -3787.641751 -17208.363907 -23784.437537    534.153525
*  2012 11 18  6 10  0.00000000
PJ01 -24648.614213  24364.652135  29131.006889    351.422434
PE11 -19637.621416  -5707.864353 -21404.185527    552.684563
PE12  -3176.523092 -17575.354452 -23604.986490    534.179090
*  2012 11 18  6 15  0.00000000
PJ01 -24760.004121  24349.226550  29031.162595    351.422451
PE11 -19083.679420  -6047.552078 -21808.232497    552.800465
PE12  -2578.821472 -17952.896894 -23392.888479    534.204622
*  2012 11 18  6 20  0.00000000
PJ01 -24874.183981  24340.970503  28920.086838    351.422489
PE11 -18527.760016  -6406.055383 -22182.125856    552.916398
PE12  -1995.518471 -18340.041279 -23148.436993    534.230187
*  2012 11 18  6 25  0.00000000
PJ01 -24990.839933  24339.990377  28797.812981    351.422599
PE11 -17971.183670  -6783.107899 -22525.349020    553.032319
PE12  -1427.539968 -18735.787222 -22871.970246    534.255738
*  2012 11 18  6 30  0.00000000
PJ01 -25109.653073  24346.378568  28664.377832    351.422624
PE11 -17415.258116  -7178.368990 -22837.427798    553.148167
PE12   -875.753169 -19139.087317 -22563.870705    534.281251
*  2012 11 18  6 35  0.00000000
PJ01 -25230.300037  24360.213266  28519.821662    351.422658
PE11 -16861.273953  -7591.424709 -23117.931039    553.264083
PE12   -340.963846 -19548.850707 -22224.564569    534.306809
EOF
